NORAD_CAT_ID,OBJECT_NAME,OBJECT_TYPE,EPOCH,MEAN_MOTION,ECCENTRICITY,INCLINATION,RA_OF_ASC_NODE,ARG_OF_PERICENTER,MEAN_ANOMALY,BSTAR,MEAN_MOTION_DOT,MEAN_MOTION_DDOT,TLE_LINE0,TLE_LINE1,TLE_LINE2,SEMIMAJOR_AXIS,PERIOD,APOGEE,PERIGEE,DECAYED
52988.0,STARLINK-4291,PAYLOAD,2024-01-02 12:12:16,15.08842607,0.000171,53.2182,72.8083,69.9297,290.1879,9.36e-05,1.202e-05,0.0,0 STARLINK-4291,1 52988U 22076C   24002.50852688  .00001202  00000-0  93600-4 0  9996,2 52988  53.2182  72.8083 0001710  69.9297 290.1879 15.08842607 82966,6917.872,95.437,540.92,538.554,0.0
52988.0,STARLINK-4291,PAYLOAD,2024-01-02 13:47:39,15.08847998,0.0001604,53.2188,72.5034,73.9506,286.1662,8.0372e-05,9.92e-06,0.0,0 STARLINK-4291,1 52988U 22076C   24002.57476255  .00000992  00000-0  80372-4 0  9992,2 52988  53.2188  72.5034 0001604  73.9506 286.1662 15.08847998 82508,6917.856,95.437,540.831,538.611,0.0
52988.0,STARLINK-4291,PAYLOAD,2024-01-03 04:06:08,15.0883548,0.0001803,53.2181,69.8348,68.5875,291.531,5.9874e-06,-1.93e-06,0.0,0 STARLINK-4291,1 52988U 22076C   24003.17093486 -.00000193  00000-0  59874-5 0  9998,2 52988  53.2181  69.8348 0001803  68.5875 291.5310 15.08835480 83063,6917.894,95.438,541.007,538.512,0.0
52988.0,STARLINK-4291,PAYLOAD,2024-01-03 12:03:04,15.08838338,0.000175,53.2181,68.3478,67.7302,292.3876,2.7464e-05,1.49e-06,0.0,0 STARLINK-4291,1 52988U 22076C   24003.50213295  .00000149  00000-0  27464-4 0  9996,2 52988  53.2181  68.3478 0001750  67.7302 292.3876 15.08838338 82642,6917.885,95.438,540.961,538.54,0.0
52988.0,STARLINK-4291,PAYLOAD,2024-01-04 03:56:55,15.08844614,0.0001415,53.2176,65.3731,83.5116,276.6037,2.301e-05,7.8e-07,0.0,0 STARLINK-4291,1 52988U 22076C   24004.16452854  .00000078  00000-0  23010-4 0  9999,2 52988  53.2176  65.3731 0001415  83.5116 276.6037 15.08844614 83214,6917.866,95.437,540.71,538.752,0.0
52988.0,STARLINK-4291,PAYLOAD,2024-01-04 10:18:27,15.08849402,0.0001546,53.2173,64.1845,76.5302,283.5863,6.5837e-05,7.6e-06,0.0,0 STARLINK-4291,1 52988U 22076C   24004.42948401  .00000760  00000-0  65837-4 0  9997,2 52988  53.2173  64.1845 0001546  76.5302 283.5863 15.08849402 82783,6917.852,95.437,540.786,538.647,0.0
52988.0,STARLINK-4291,PAYLOAD,2024-01-05 10:09:14,15.08841046,0.0001589,53.218,59.7229,95.3539,264.7635,4.4541e-05,4.21e-06,0.0,0 STARLINK-4291,1 52988U 22076C   24005.42308807  .00000421  00000-0  44541-4 0  9991,2 52988  53.2180  59.7229 0001589  95.3539 264.7635 15.08841046 83409,6917.877,95.437,540.841,538.643,0.0
52988.0,STARLINK-4291,PAYLOAD,2024-01-06 10:00:01,15.08841209,0.0001689,53.2183,55.2634,106.8203,253.2974,-5.7483e-06,-3.8e-06,0.0,0 STARLINK-4291,1 52988U 22076C   24006.41668857 -.00000380  00000-0 -57483-5 0  9991,2 52988  53.2183  55.2634 0001689 106.8203 253.2974 15.08841209 83084,6917.877,95.437,540.91,538.573,0.0
52988.0,STARLINK-4291,PAYLOAD,2024-01-06 13:10:47,15.08843727,0.00016,53.2178,54.6672,103.4031,256.714,3.779e-06,-2.28e-06,0.0,0 STARLINK-4291,1 52988U 22076C   24006.54916646 -.00000228  00000-0  37790-5 0  9996,2 52988  53.2178  54.6672 0001600 103.4031 256.7140 15.08843727 83572,6917.869,95.437,540.841,538.627,0.0
52988.0,STARLINK-4291,PAYLOAD,2024-01-07 09:50:49,15.08836754,0.0001528,53.2178,50.7997,95.2718,264.8448,9.9872e-06,-1.29e-06,0.0,0 STARLINK-4291,1 52988U 22076C   24007.41029229 -.00000129  00000-0  99872-5 0  9994,2 52988  53.2178  50.7997 0001528  95.2718 264.8448 15.08836754 83706,6917.89,95.438,540.812,538.698,0.0
52988.0,STARLINK-4291,PAYLOAD,2024-01-08 08:06:13,15.0883702,0.0001548,53.218,46.6358,94.3981,265.7188,4.5177e-05,4.31e-06,0.0,0 STARLINK-4291,1 52988U 22076C   24008.33765341  .00000431  00000-0  45177-4 0  9991,2 52988  53.2180  46.6358 0001548  94.3981 265.7188 15.08837020 83379,6917.889,95.438,540.825,538.684,0.0
52988.0,STARLINK-4291,PAYLOAD,2024-01-09 11:07:47,15.08835781,0.0001516,53.2175,41.5798,87.4702,272.6464,6.0581e-05,6.76e-06,0.0,0 STARLINK-4291,1 52988U 22076C   24009.46374770  .00000676  00000-0  60581-4 0  9995,2 52988  53.2175  41.5798 0001516  87.4702 272.6464 15.08835781 84012,6917.893,95.438,540.807,538.71,0.0
52988.0,STARLINK-4291,PAYLOAD,2024-01-10 10:58:33,15.08870822,0.0001573,53.2171,37.1187,86.8145,273.3027,0.00056256,8.684e-05,0.0,0 STARLINK-4291,1 52988U 22076C   24010.45732666  .00008684  00000-0  56256-3 0  9998,2 52988  53.2171  37.1187 0001573  86.8145 273.3027 15.08870822 84162,6917.786,95.436,540.739,538.563,0.0
52988.0,STARLINK-4291,PAYLOAD,2024-01-11 07:38:34,15.0885661,0.0001479,53.2173,33.2587,87.4257,272.6905,0.00018493,2.658e-05,0.0,0 STARLINK-4291,1 52988U 22076C   24011.31845431  .00002658  00000-0  18493-3 0  9995,2 52988  53.2173  33.2587 0001479  87.4257 272.6905 15.08856610 84291,6917.83,95.437,540.718,538.671,0.0
52988.0,STARLINK-4291,PAYLOAD,2024-01-12 01:07:48,15.08847504,0.0001704,53.2165,29.997,68.7015,291.4159,-0.00013276,-2.401e-05,0.0,0 STARLINK-4291,1 52988U 22076C   24012.04709474 -.00002401  00000-0 -13276-3 0  9994,2 52988  53.2165  29.9970 0001704  68.7015 291.4159 15.08847504 84400,6917.857,95.437,540.901,538.544,0.0
52988.0,STARLINK-4291,PAYLOAD,2024-01-12 07:29:21,15.08843544,0.000153,53.217,28.7986,80.6905,279.426,-0.00018785,-3.277e-05,0.0,0 STARLINK-4291,1 52988U 22076C   24012.31205686 -.00003277  00000-0 -18785-3 0  9992,2 52988  53.2170  28.7986 0001530  80.6905 279.4260 15.08843544 83978,6917.87,95.437,540.793,538.676,0.0
52988.0,STARLINK-4291,PAYLOAD,2024-01-13 10:30:55,15.08827115,0.0001525,53.2178,23.7397,98.8229,261.2936,0.00035099,5.3e-05,0.0,0 STARLINK-4291,1 52988U 22076C   24013.43813824  .00005300  00000-0  35099-3 0  9999,2 52988  53.2178  23.7397 0001525  98.8229 261.2936 15.08827115 84618,6917.92,95.438,540.84,538.73,0.0
52988.0,STARLINK-4291,PAYLOAD,2024-01-14 04:00:10,15.08797681,0.0001638,53.2179,20.4662,97.9552,262.1626,0.00070996,0.00011016,0.0,0 STARLINK-4291,1 52988U 22076C   24014.16679023  .00011016  00000-0  70996-3 0  9997,2 52988  53.2179  20.4662 0001638  97.9552 262.1626 15.08797681 84724,6918.01,95.44,541.008,538.742,0.0
52988.0,STARLINK-4291,PAYLOAD,2024-01-14 10:21:41,15.08843394,0.0001318,53.217,19.2768,99.809,260.3051,0.00010015,1.306e-05,0.0,0 STARLINK-4291,1 52988U 22076C   24014.43173572  .00001306  00000-0  10015-3 0  9992,2 52988  53.2170  19.2768 0001318  99.8090 260.3051 15.08843394 84760,6917.87,95.437,540.647,538.823,0.0
52988.0,STARLINK-4291,PAYLOAD,2024-01-15 10:12:28,15.08851526,0.0001453,53.2163,14.8178,96.7719,263.3439,0.00015769,2.223e-05,0.0,0 STARLINK-4291,1 52988U 22076C   24015.42533231  .00002223  00000-0  15769-3 0  9994,2 52988  53.2163  14.8178 0001453  96.7719 263.3439 15.08851526 84446,6917.845,95.437,540.715,538.705,0.0
52988.0,STARLINK-4291,PAYLOAD,2024-01-16 02:06:21,15.08832047,0.0001901,53.2158,11.8401,124.3424,235.7748,-5.4337e-05,-1.153e-05,0.0,0 STARLINK-4291,1 52988U 22076C   24016.08774315 -.00001153  00000-0 -54337-4 0  9995,2 52988  53.2158  11.8401 0001901 124.3424 235.7748 15.08832047 85012,6917.905,95.438,541.085,538.455,0.0
52988.0,STARLINK-4291,PAYLOAD,2024-01-16 10:03:16,15.08837363,0.0001688,53.2173,10.3602,87.2311,272.8875,1.3122e-05,-7.9e-07,0.0,0 STARLINK-4291,1 52988U 22076C   24016.41894385 -.00000079  00000-0  13122-4 0  9994,2 52988  53.2173  10.3602 0001688  87.2311 272.8875 15.08837363 84591,6917.888,95.438,540.921,538.586,0.0
52988.0,STARLINK-4291,PAYLOAD,2024-01-17 03:32:31,15.08841963,0.0001653,53.2169,7.0892,94.871,265.2471,9.0262e-05,1.149e-05,0.0,0 STARLINK-4291,1 52988U 22076C   24017.14758364  .00001149  00000-0  90262-4 0  9999,2 52988  53.2169   7.0892 0001653  94.8710 265.2471 15.08841963 85173,6917.874,95.437,540.883,538.596,0.0
52988.0,STARLINK-4291,PAYLOAD,2024-01-17 05:07:54,15.08842957,0.0001899,53.2185,6.7929,105.0526,255.0676,0.00015855,2.236e-05,0.0,0 STARLINK-4291,1 52988U 22076C   24017.21382305  .00002236  00000-0  15855-3 0  9997,2 52988  53.2185   6.7929 0001899 105.0526 255.0676 15.08842957 84717,6917.871,95.437,541.05,538.423,0.0
52988.0,STARLINK-4291,PAYLOAD,2024-01-18 08:09:27,15.08847995,0.0001512,53.217,1.7359,92.9795,267.1371,0.00029638,4.433e-05,0.0,0 STARLINK-4291,1 52988U 22076C   24018.33990448  .00004433  00000-0  29638-3 0  9999,2 52988  53.2170   1.7359 0001512  92.9795 267.1371 15.08847995 85351,6917.856,95.437,540.767,538.675,0.0
52988.0,STARLINK-4291,PAYLOAD,2024-01-18 22:27:56,15.08841264,0.0001699,53.2189,359.0556,124.7221,235.3932,0.00012278,1.667e-05,0.0,0 STARLINK-4291,1 52988U 22076C   24018.93606799  .00001667  00000-0  12278-3 0  9996,2 52988  53.2189 359.0556 0001699 124.7221 235.3932 15.08841264 84973,6917.877,95.437,540.917,538.566,0.0
52988.0,STARLINK-4291,PAYLOAD,2024-01-19 08:00:14,15.0885954,0.000164,53.2167,357.2744,104.038,256.0794,0.00057655,8.905e-05,0.0,0 STARLINK-4291,1 52988U 22076C   24019.33349966  .00008905  00000-0  57655-3 0  9991,2 52988  53.2167 357.2744 0001640 104.0380 256.0794 15.08859540 85031,6917.821,95.436,540.82,538.551,0.0
52988.0,STARLINK-4291,PAYLOAD,2024-01-19 22:18:42,15.08845391,0.0001626,53.2167,354.5977,102.848,257.2694,0.00020463,2.971e-05,0.0,0 STARLINK-4291,1 52988U 22076C   24019.92966358  .00002971  00000-0  20463-3 0  9990,2 52988  53.2167 354.5977 0001626 102.8480 257.2694 15.08845391 85121,6917.864,95.437,540.854,538.604,0.0
52988.0,STARLINK-4291,PAYLOAD,2024-01-20 03:04:52,15.08851627,0.0001458,53.2169,353.7065,93.5809,266.5349,0.00064683,0.00010025,0.0,0 STARLINK-4291,1 52988U 22076C   24020.12838285  .00010025  00000-0  64683-3 0  9992,2 52988  53.2169 353.7065 0001458  93.5809 266.5349 15.08851627 85620,6917.845,95.437,540.718,538.701,0.0
52988.0,STARLINK-4291,PAYLOAD,2024-01-20 07:51:01,15.08862401,0.0001404,53.2168,352.8152,95.489,264.6262,0.0010785,0.00016928,0.0,0 STARLINK-4291,1 52988U 22076C   24020.32710048  .00016928  00000-0  10785-2 0  9991,2 52988  53.2168 352.8152 0001404  95.4890 264.6262 15.08862401 85184,6917.812,95.436,540.648,538.706,0.0
